{
"type": "FeatureCollection",
"name": "ifc_footprints_georeferenced",
"crs": { "type": "name", "properties": { "name": "urn:ogc:def:crs:OGC:1.3:CRS84" } },
"features": [
{ "type": "Feature", "properties": { "GlobalId": "2XPyKWY018sA1ygZKgQPtU", "Class": "IfcWallStandardCase", "Name": "Wand-Int-ERDG-4", "PredefinedType": null, "Area_2D": 1.0008, "Length_2D": 8.9194112549695426 }, "geometry": { "type": "Polygon", "coordinates": [ [ [ 15.846539, 53.110435 ], [ 16.086539, 53.350435 ], [ 20.136539, 53.350435 ], [ 20.136539, 53.110435 ], [ 15.846539, 53.110435 ] ] ] } },
{ "type": "Feature", "properties": { "GlobalId": "3PfS__Y_DBAfq5naM6zD2Z", "Class": "IfcWallStandardCase", "Name": "Wand-Int-ERDG-2", "PredefinedType": null, "Area_2D": 1.3368, "Length_2D": 11.719411254969542 }, "geometry": { "type": "Polygon", "coordinates": [ [ [ 15.846539, 53.110435 ], [ 15.846539, 58.800435 ], [ 16.086539, 58.800435 ], [ 16.086539, 53.350435 ], [ 15.846539, 53.110435 ] ] ] } },
{ "type": "Feature", "properties": { "GlobalId": "2ptk1k7qn8_Qk22vjh$0DE", "Class": "IfcWallStandardCase", "Name": "Wand-Int-ERDG-1", "PredefinedType": null, "Area_2D": 0.8904, "Length_2D": 7.9 }, "geometry": { "type": "Polygon", "coordinates": [ [ [ 12.236539, 55.090435 ], [ 12.236539, 58.800435 ], [ 12.476539, 58.800435 ], [ 12.476539, 55.090435 ], [ 12.236539, 55.090435 ] ] ] } },
{ "type": "Feature", "properties": { "GlobalId": "3jjW3rL656ex34Gws22EfM", "Class": "IfcWallStandardCase", "Name": "Wand-Int-ERDG-3", "PredefinedType": null, "Area_2D": 1.7064, "Length_2D": 14.7 }, "geometry": { "type": "Polygon", "coordinates": [ [ [ 8.736539, 54.850435 ], [ 8.736539, 55.090435 ], [ 15.846539, 55.090435 ], [ 15.846539, 54.850435 ], [ 8.736539, 54.850435 ] ] ] } },
{ "type": "Feature", "properties": { "GlobalId": "1$wmdwWPjDYuku_ghVkynE", "Class": "IfcWallStandardCase", "Name": "Wand-Int-ERDG-5", "PredefinedType": null, "Area_2D": 0.84, "Length_2D": 7.48 }, "geometry": { "type": "Polygon", "coordinates": [ [ [ 8.736539, 53.110435 ], [ 8.736539, 53.350435 ], [ 12.236539, 53.350435 ], [ 12.236539, 53.110435 ], [ 8.736539, 53.110435 ] ] ] } },
{ "type": "Feature", "properties": { "GlobalId": "3rPX_Juz59peXXY6wDJl18", "Class": "IfcWallStandardCase", "Name": "Wand-Ext-ERDG-1", "PredefinedType": null, "Area_2D": 2.91, "Length_2D": 20.248528137423854 }, "geometry": { "type": "Polygon", "coordinates": [ [ [ 8.436539, 49.100435 ], [ 8.436539, 59.100435 ], [ 8.736539, 58.800435 ], [ 8.736539, 49.400435 ], [ 8.436539, 49.100435 ] ] ] } },
{ "type": "Feature", "properties": { "GlobalId": "16DNNqzfP2thtfaOflvsKA", "Class": "IfcWallStandardCase", "Name": "Wand-Ext-ERDG-4", "PredefinedType": null, "Area_2D": 3.51, "Length_2D": 24.248528137423857 }, "geometry": { "type": "Polygon", "coordinates": [ [ [ 8.436539, 49.100435 ], [ 8.736539, 49.400435 ], [ 20.136539, 49.400435 ], [ 20.436539, 49.100435 ], [ 8.436539, 49.100435 ] ] ] } },
{ "type": "Feature", "properties": { "GlobalId": "25fsbPyk15VvuXI$yNKenK", "Class": "IfcWallStandardCase", "Name": "Wand-Ext-ERDG-3", "PredefinedType": null, "Area_2D": 2.91, "Length_2D": 20.248528137423857 }, "geometry": { "type": "Polygon", "coordinates": [ [ [ 20.436539, 49.100435 ], [ 20.136539, 49.400435 ], [ 20.136539, 58.800435 ], [ 20.436539, 59.100435 ], [ 20.436539, 49.100435 ] ] ] } },
{ "type": "Feature", "properties": { "GlobalId": "1bzfVsJqn8De5PukCrqylz", "Class": "IfcWallStandardCase", "Name": "Wand-Ext-ERDG-2", "PredefinedType": null, "Area_2D": 3.51, "Length_2D": 24.248528137423857 }, "geometry": { "type": "Polygon", "coordinates": [ [ [ 8.736539, 58.800435 ], [ 8.436539, 59.100435 ], [ 20.436539, 59.100435 ], [ 20.136539, 58.800435 ], [ 8.736539, 58.800435 ] ] ] } },
{ "type": "Feature", "properties": { "GlobalId": "0knNIAVBPBFvBy_m5QVHsU", "Class": "IfcWallStandardCase", "Name": "Wand-Ext-OG-1", "PredefinedType": null, "Area_2D": 2.91, "Length_2D": 20.248528137423854 }, "geometry": { "type": "Polygon", "coordinates": [ [ [ 8.436539, 49.100435 ], [ 8.436539, 59.100435 ], [ 8.736539, 58.800435 ], [ 8.736539, 49.400435 ], [ 8.436539, 49.100435 ] ] ] } },
{ "type": "Feature", "properties": { "GlobalId": "25OWQvmXj5BPgyergP43tY", "Class": "IfcWallStandardCase", "Name": "Wand-Ext-OG-2", "PredefinedType": null, "Area_2D": 3.51, "Length_2D": 24.248528137423857 }, "geometry": { "type": "Polygon", "coordinates": [ [ [ 8.736539, 58.800435 ], [ 8.436539, 59.100435 ], [ 20.436539, 59.100435 ], [ 20.136539, 58.800435 ], [ 8.736539, 58.800435 ] ] ] } },
{ "type": "Feature", "properties": { "GlobalId": "3VCarUKgH1buLo22Ozxe6J", "Class": "IfcWallStandardCase", "Name": "Wand-Ext-OG-3", "PredefinedType": null, "Area_2D": 2.91, "Length_2D": 20.248528137423857 }, "geometry": { "type": "Polygon", "coordinates": [ [ [ 20.436539, 49.100435 ], [ 20.136539, 49.400435 ], [ 20.136539, 58.800435 ], [ 20.436539, 59.100435 ], [ 20.436539, 49.100435 ] ] ] } },
{ "type": "Feature", "properties": { "GlobalId": "3Ttjr$59XEWfWN1WUHjelZ", "Class": "IfcWallStandardCase", "Name": "Wand-Ext-OG-4", "PredefinedType": null, "Area_2D": 3.51, "Length_2D": 24.248528137423857 }, "geometry": { "type": "Polygon", "coordinates": [ [ [ 8.436539, 49.100435 ], [ 8.736539, 49.400435 ], [ 20.136539, 49.400435 ], [ 20.436539, 49.100435 ], [ 8.436539, 49.100435 ] ] ] } },
{ "type": "Feature", "properties": { "GlobalId": "1pPHnf7cXCpPsNEnQf8_6B", "Class": "IfcSlab", "Name": "Bodenplatte", "PredefinedType": "BASESLAB", "Area_2D": 120.0, "Length_2D": 44.0 }, "geometry": { "type": "Polygon", "coordinates": [ [ [ 8.436539, 49.100435 ], [ 8.436539, 59.100435 ], [ 20.436539, 59.100435 ], [ 20.436539, 49.100435 ], [ 8.436539, 49.100435 ] ] ] } },
{ "type": "Feature", "properties": { "GlobalId": "2RGlQk4xH47RHK93zcTzUL", "Class": "IfcSlab", "Name": "Slab-033", "PredefinedType": "FLOOR", "Area_2D": 115.64, "Length_2D": 43.2 }, "geometry": { "type": "Polygon", "coordinates": [ [ [ 8.536539, 49.200435 ], [ 8.536539, 59.000435 ], [ 20.336539, 59.000435 ], [ 20.336539, 49.200435 ], [ 8.536539, 49.200435 ] ] ] } },
{ "type": "Feature", "properties": { "GlobalId": "07Enbsqm9C7AQC9iyBwfSD", "Class": "IfcSlab", "Name": "Dach-1", "PredefinedType": "ROOF", "Area_2D": 71.500000000037289, "Length_2D": 37.000000000005741 }, "geometry": { "type": "Polygon", "coordinates": [ [ [ 7.936539, 54.100434999997397 ], [ 7.936539, 59.600435000000267 ], [ 20.936539, 59.600435000000267 ], [ 20.936539, 54.100434999997397 ], [ 7.936539, 54.100434999997397 ] ] ] } },
{ "type": "Feature", "properties": { "GlobalId": "2IxUUNUVPB6Ob$eicCfP2N", "Class": "IfcSlab", "Name": "Dach-2", "PredefinedType": "ROOF", "Area_2D": 71.500000000037289, "Length_2D": 37.000000000005741 }, "geometry": { "type": "Polygon", "coordinates": [ [ [ 7.936539, 48.600434999999742 ], [ 7.936539, 54.100435000002612 ], [ 20.936539, 54.100435000002612 ], [ 20.936539, 48.600434999999742 ], [ 7.936539, 48.600434999999742 ] ] ] } },
{ "type": "Feature", "properties": { "GlobalId": "1Oms875aH3Wg$9l65H2ZGw", "Class": "IfcDoor", "Name": "Innentuer-1", "PredefinedType": null, "Area_2D": 0.0885, "Length_2D": 1.97 }, "geometry": { "type": "Polygon", "coordinates": [ [ [ 15.846539, 53.657935 ], [ 15.846539, 54.542935 ], [ 15.946539, 54.542935 ], [ 15.946539, 53.657935 ], [ 15.846539, 53.657935 ] ] ] } },
{ "type": "Feature", "properties": { "GlobalId": "0pGAjlJMP3ifYPATVF5xAR", "Class": "IfcDoor", "Name": "Innentuer-2", "PredefinedType": null, "Area_2D": 0.0885, "Length_2D": 1.97 }, "geometry": { "type": "Polygon", "coordinates": [ [ [ 13.654039, 54.850435 ], [ 13.654039, 54.950435 ], [ 14.539039, 54.950435 ], [ 14.539039, 54.850435 ], [ 13.654039, 54.850435 ] ] ] } },
{ "type": "Feature", "properties": { "GlobalId": "2qiPPF3FrF8OIqfrKiSUqm", "Class": "IfcDoor", "Name": "Innentuer-3", "PredefinedType": null, "Area_2D": 0.0885, "Length_2D": 1.97 }, "geometry": { "type": "Polygon", "coordinates": [ [ [ 10.044039, 54.850435 ], [ 10.044039, 54.950435 ], [ 10.929039, 54.950435 ], [ 10.929039, 54.850435 ], [ 10.044039, 54.850435 ] ] ] } },
{ "type": "Feature", "properties": { "GlobalId": "2jTRqchjf7oB0yhQ6462T0", "Class": "IfcDoor", "Name": "Haustuer", "PredefinedType": null, "Area_2D": 0.15016404810457054, "Length_2D": 2.2478751272602451 }, "geometry": { "type": "Polygon", "coordinates": [ [ [ 8.636539, 53.595435 ], [ 8.596539, 53.650435 ], [ 8.596539, 53.710435 ], [ 8.636539, 54.605435 ], [ 8.736539, 54.605435 ], [ 8.786539, 53.788426695177002 ], [ 8.786539, 53.692443304823001 ], [ 8.785919888903999, 53.687741839106003 ], [ 8.783915357603, 53.682903038568007 ], [ 8.736539, 53.595435 ], [ 8.636539, 53.595435 ] ] ] } },
{ "type": "Feature", "properties": { "GlobalId": "1M$gxUrX1Fiwe3P64ww7U5", "Class": "IfcDoor", "Name": "Terrassentuer", "PredefinedType": null, "Area_2D": 0.3173, "Length_2D": 4.2721672008013325 }, "geometry": { "type": "Polygon", "coordinates": [ [ [ 15.331539, 49.220435 ], [ 13.431539, 49.300435 ], [ 13.431539, 49.400435 ], [ 13.481539, 49.425435 ], [ 14.151539, 49.425435 ], [ 15.441539, 49.400435 ], [ 15.441539, 49.300435 ], [ 15.391539, 49.220435 ], [ 15.331539, 49.220435 ] ] ] } },
{ "type": "Feature", "properties": { "GlobalId": "1srAI$R4T8ihLXSNHmUSET", "Class": "IfcWindow", "Name": "EG-Fenster-6", "PredefinedType": null, "Area_2D": 0.148875, "Length_2D": 4.1129563014098718 }, "geometry": { "type": "Polygon", "coordinates": [ [ [ 8.556539, 55.595435 ], [ 8.556539, 57.595435 ], [ 8.606539, 57.595435 ], [ 8.631539, 57.550435 ], [ 8.631539, 55.640435 ], [ 8.606539, 55.595435 ], [ 8.556539, 55.595435 ] ] ] } },
{ "type": "Feature", "properties": { "GlobalId": "0B1RwEzzP3CfME5NR$Vqh5", "Class": "IfcWindow", "Name": "EG-Fenster-7", "PredefinedType": null, "Area_2D": 0.148875, "Length_2D": 4.11295630140987 }, "geometry": { "type": "Polygon", "coordinates": [ [ [ 8.556539, 50.305435 ], [ 8.556539, 52.305435 ], [ 8.606539, 52.305435 ], [ 8.631539, 52.260435 ], [ 8.631539, 50.350435 ], [ 8.606539, 50.305435 ], [ 8.556539, 50.305435 ] ] ] } },
{ "type": "Feature", "properties": { "GlobalId": "25nJxEpYf8LRDJNkMUVO0m", "Class": "IfcWindow", "Name": "EG-Fenster-4", "PredefinedType": null, "Area_2D": 0.148875, "Length_2D": 4.11295630140987 }, "geometry": { "type": "Polygon", "coordinates": [ [ [ 10.226539, 49.220435 ], [ 10.226539, 49.270435 ], [ 10.271539, 49.295435 ], [ 12.181539, 49.295435 ], [ 12.226539, 49.270435 ], [ 12.226539, 49.220435 ], [ 10.226539, 49.220435 ] ] ] } },
{ "type": "Feature", "properties": { "GlobalId": "3BFcylCsX74PQAoRAe5fNv", "Class": "IfcWindow", "Name": "EG-Fenster-5", "PredefinedType": null, "Area_2D": 0.148875, "Length_2D": 4.11295630140987 }, "geometry": { "type": "Polygon", "coordinates": [ [ [ 16.646539, 49.220435 ], [ 16.646539, 49.270435 ], [ 16.691539, 49.295435 ], [ 18.601539, 49.295435 ], [ 18.646539, 49.270435 ], [ 18.646539, 49.220435 ], [ 16.646539, 49.220435 ] ] ] } },
{ "type": "Feature", "properties": { "GlobalId": "13aSY79zb8fP4HApEJ0z_e", "Class": "IfcWindow", "Name": "EG-Fenster-8", "PredefinedType": null, "Area_2D": 0.148875, "Length_2D": 4.11295630140987 }, "geometry": { "type": "Polygon", "coordinates": [ [ [ 20.266539, 55.602828715340003 ], [ 20.241539, 55.647828715340005 ], [ 20.241539, 57.557828715340008 ], [ 20.266539, 57.602828715340003 ], [ 20.316539, 57.602828715340003 ], [ 20.316539, 55.602828715340003 ], [ 20.266539, 55.602828715340003 ] ] ] } },
{ "type": "Feature", "properties": { "GlobalId": "2EQh_jhP1B_A_AMuSJc5E0", "Class": "IfcWindow", "Name": "EG-Fenster-9", "PredefinedType": null, "Area_2D": 0.148875, "Length_2D": 4.11295630140987 }, "geometry": { "type": "Polygon", "coordinates": [ [ [ 20.266539, 50.305435 ], [ 20.241539, 50.350435 ], [ 20.241539, 52.260435 ], [ 20.266539, 52.305435 ], [ 20.316539, 52.305435 ], [ 20.316539, 50.305435 ], [ 20.266539, 50.305435 ] ] ] } },
{ "type": "Feature", "properties": { "GlobalId": "1TAI4ouKX4Xx4lBDZIu5qM", "Class": "IfcWindow", "Name": "EG-Fenster-1", "PredefinedType": null, "Area_2D": 0.148875, "Length_2D": 4.11295630140987 }, "geometry": { "type": "Polygon", "coordinates": [ [ [ 9.531539, 58.905435 ], [ 9.486539, 58.930435 ], [ 9.486539, 58.980435 ], [ 11.486539, 58.980435 ], [ 11.486539, 58.930435 ], [ 11.441539, 58.905435 ], [ 9.531539, 58.905435 ] ] ] } },
{ "type": "Feature", "properties": { "GlobalId": "2Q9w7oRXP249jBobEMVqlZ", "Class": "IfcWindow", "Name": "EG-Fenster-2", "PredefinedType": null, "Area_2D": 0.148875, "Length_2D": 4.11295630140987 }, "geometry": { "type": "Polygon", "coordinates": [ [ [ 13.141539, 58.905435 ], [ 13.096539, 58.930435 ], [ 13.096539, 58.980435 ], [ 15.096539, 58.980435 ], [ 15.096539, 58.930435 ], [ 15.051539, 58.905435 ], [ 13.141539, 58.905435 ] ] ] } },
{ "type": "Feature", "properties": { "GlobalId": "1DiYqhfzH9xxuJdVHwXCNa", "Class": "IfcWindow", "Name": "EG-Fenster-3", "PredefinedType": null, "Area_2D": 0.148875, "Length_2D": 4.11295630140987 }, "geometry": { "type": "Polygon", "coordinates": [ [ [ 17.276539, 58.905435 ], [ 17.231539, 58.930435 ], [ 17.231539, 58.980435 ], [ 19.231539, 58.980435 ], [ 19.231539, 58.930435 ], [ 19.186539, 58.905435 ], [ 17.276539, 58.905435 ] ] ] } },
{ "type": "Feature", "properties": { "GlobalId": "1zOBw0Gej5Wf0QAJfHnOc0", "Class": "IfcWindow", "Name": "OG-Fenster-2", "PredefinedType": null, "Area_2D": 0.0876, "Length_2D": 2.1308800749063508 }, "geometry": { "type": "Polygon", "coordinates": [ [ [ 8.561539, 53.600435 ], [ 8.531539, 53.680435 ], [ 8.531539, 54.520435 ], [ 8.561539, 54.600435 ], [ 8.621539, 54.600435 ], [ 8.621539, 53.600435 ], [ 8.561539, 53.600435 ] ] ] } },
{ "type": "Feature", "properties": { "GlobalId": "2ACmFFQhT1Ouf0x4YRUh9m", "Class": "IfcWindow", "Name": "OG-Fenster-1", "PredefinedType": null, "Area_2D": 0.0876, "Length_2D": 2.1308800749063512 }, "geometry": { "type": "Polygon", "coordinates": [ [ [ 20.261539, 53.600435 ], [ 20.231539, 53.680435 ], [ 20.231539, 54.520435 ], [ 20.261539, 54.600435 ], [ 20.321539, 54.600435 ], [ 20.321539, 53.600435 ], [ 20.261539, 53.600435 ] ] ] } }
]
}
